{
  "links" : {
    "next" : "https://api.nasa.gov/neo/rest/v1/feed?start_date=1998-01-09&end_date=1998-01-09&detailed=true&api_key=t0TVs3DtDT2H8Oy2Zy8m2eVrNsAVKAexjcZXUckd",
    "prev" : "https://api.nasa.gov/neo/rest/v1/feed?start_date=1998-01-07&end_date=1998-01-07&detailed=true&api_key=t0TVs3DtDT2H8Oy2Zy8m2eVrNsAVKAexjcZXUckd",
    "self" : "https://api.nasa.gov/neo/rest/v1/feed?start_date=1998-01-08&end_date=1998-01-08&detailed=true&api_key=t0TVs3DtDT2H8Oy2Zy8m2eVrNsAVKAexjcZXUckd"
  },
  "element_count" : 2,
  "near_earth_objects" : {
    "1998-01-08" : [ {
      "links" : {
        "self" : "https://api.nasa.gov/neo/rest/v1/neo/2369984?api_key=t0TVs3DtDT2H8Oy2Zy8m2eVrNsAVKAexjcZXUckd"
      },
      "neo_reference_id" : "2369984",
      "name" : "369984 (1998 QR52)",
      "nasa_jpl_url" : "http://ssd.jpl.nasa.gov/sbdb.cgi?sstr=2369984",
      "absolute_magnitude_h" : 18.8,
      "estimated_diameter" : {
        "kilometers" : {
          "estimated_diameter_min" : 0.4619074603,
          "estimated_diameter_max" : 1.0328564805
        },
        "meters" : {
          "estimated_diameter_min" : 461.9074602816,
          "estimated_diameter_max" : 1032.8564805039
        },
        "miles" : {
          "estimated_diameter_min" : 0.2870159005,
          "estimated_diameter_max" : 0.6417870641
        },
        "feet" : {
          "estimated_diameter_min" : 1515.4444719902,
          "estimated_diameter_max" : 3388.6368554964
        }
      },
      "is_potentially_hazardous_asteroid" : false,
      "close_approach_data" : [ {
        "close_approach_date" : "1998-01-08",
        "epoch_date_close_approach" : 884246400000,
        "relative_velocity" : {
          "kilometers_per_second" : "13.0028631093",
          "kilometers_per_hour" : "46810.3071934984",
          "miles_per_hour" : "29086.1044892046"
        },
        "miss_distance" : {
          "astronomical" : "0.2132402613",
          "lunar" : "82.9504623413",
          "kilometers" : "31900290",
          "miles" : "19821922"
        },
        "orbiting_body" : "Earth"
      } ],
      "orbital_data" : {
        "orbit_id" : "74",
        "orbit_determination_date" : "2017-04-06 09:22:32",
        "orbit_uncertainty" : "0",
        "minimum_orbit_intersection" : ".209541",
        "jupiter_tisserand_invariant" : "5.803",
        "epoch_osculation" : "2458000.5",
        "eccentricity" : ".287746565372645",
        "semi_major_axis" : "1.043616937397781",
        "inclination" : "17.63552586668034",
        "ascending_node_longitude" : "316.2223522622041",
        "orbital_period" : "389.4126946448688",
        "perihelion_distance" : ".743319748096851",
        "perihelion_argument" : "204.3110432368127",
        "aphelion_distance" : "1.343914126698711",
        "perihelion_time" : "2457865.145652577157",
        "mean_anomaly" : "125.1309105797424",
        "mean_motion" : ".9244690914052193",
        "equinox" : "J2000"
      }
    }, {
      "links" : {
        "self" : "https://api.nasa.gov/neo/rest/v1/neo/3381230?api_key=t0TVs3DtDT2H8Oy2Zy8m2eVrNsAVKAexjcZXUckd"
      },
      "neo_reference_id" : "3381230",
      "name" : "(2007 PB8)",
      "nasa_jpl_url" : "http://ssd.jpl.nasa.gov/sbdb.cgi?sstr=3381230",
      "absolute_magnitude_h" : 20.9,
      "estimated_diameter" : {
        "kilometers" : {
          "estimated_diameter_min" : 0.1756123185,
          "estimated_diameter_max" : 0.3926810818
        },
        "meters" : {
          "estimated_diameter_min" : 175.6123184804,
          "estimated_diameter_max" : 392.6810818086
        },
        "miles" : {
          "estimated_diameter_min" : 0.1091204019,
          "estimated_diameter_max" : 0.2440006365
        },
        "feet" : {
          "estimated_diameter_min" : 576.1559189633,
          "estimated_diameter_max" : 1288.3238004408
        }
      },
      "is_potentially_hazardous_asteroid" : false,
      "close_approach_data" : [ {
        "close_approach_date" : "1998-01-08",
        "epoch_date_close_approach" : 884246400000,
        "relative_velocity" : {
          "kilometers_per_second" : "22.020977319",
          "kilometers_per_hour" : "79275.5183485235",
          "miles_per_hour" : "49258.7241649478"
        },
        "miss_distance" : {
          "astronomical" : "0.4939065072",
          "lunar" : "192.1296234131",
          "kilometers" : "73887360",
          "miles" : "45911476"
        },
        "orbiting_body" : "Earth"
      } ],
      "orbital_data" : {
        "orbit_id" : "21",
        "orbit_determination_date" : "2017-04-06 09:06:14",
        "orbit_uncertainty" : "1",
        "minimum_orbit_intersection" : ".159552",
        "jupiter_tisserand_invariant" : "6.616",
        "epoch_osculation" : "2458000.5",
        "eccentricity" : ".4450655237984713",
        "semi_major_axis" : ".8805025705713785",
        "inclination" : "16.55855461331012",
        "ascending_node_longitude" : "323.160370109745",
        "orbital_period" : "301.7827204224093",
        "perihelion_distance" : ".4886212327941274",
        "perihelion_argument" : "169.4188880644217",
        "aphelion_distance" : "1.272383908348629",
        "perihelion_time" : "2458073.011312358343",
        "mean_anomaly" : "273.5004402754892",
        "mean_motion" : "1.192911242552599",
        "equinox" : "J2000"
      }
    } ]
  }
}